STARLINK-1200_new
1 15181C 20012D   21326.12091598  .00006559  00000-0  43949-3 0  3264
2 15181  53.0529 248.1916 0001857  66.1579  67.2173 15.06391128    14
STARLINK-1200_old
1 25181C 20012D   21325.11544168  .00005217  00000-0  34965-3 0  3255
2 25181  53.0536 252.7049 0001796  64.5506  13.1126 15.06382989    17
